GLOBALSTAR M024         
1 25883U 99043A   24203.84845508  .00000019  00000+0  29641-2 0  9997
2 25883  52.0028  45.9766 0000771 310.9533 144.8535 11.10158648 78179
GLOBALSTAR M027         
1 25884U 99043B   24203.22017493 -.00000070  00000+0 -22955-3 0  9995
2 25884  52.0207 115.9997 0020791 176.0511 184.0449 11.04369138104670
GLOBALSTAR M054         
1 25885U 99043C   24203.61093747  .00000046  00000+0  29925-2 0  9999
2 25885  52.0154 297.9085 0004526 335.9113 132.7536 11.39210095 81703
GLOBALSTAR M058         
1 25907U 99049A   24203.58094592 -.00000097  00000+0 -16829-3 0  9993
2 25907  51.9937 271.9707 0001865   4.0735 356.0115 11.93179046502077
GLOBALSTAR M033         
1 25909U 99049C   24203.43449805 -.00000094  00000+0 -20853-4 0  9990
2 25909  51.9886 199.4261 0012765 306.4527  53.5143 12.20273472495362
GLOBALSTAR M055         
1 25910U 99049D   24203.36114201 -.00000067  00000+0  23525-3 0  9990
2 25910  51.9992 226.4802 0007189 165.2476 194.8586 12.29404944127598
